GLOBALSTAR M075         
1 37192U 10054E   25275.56143706 -.00000082  00000+0  11972-3 0  9998
2 37192  51.9938 214.6058 0000546  63.1413 107.7626 12.62268207689400
GLOBALSTAR M073         
1 37193U 10054F   25275.08574638 -.00000079  00000+0  14092-3 0  9990
2 37193  52.0039 129.9565 0000821  95.5191  72.0860 12.62263176691333
GLOBALSTAR M083         
1 37739U 11033A   25275.69830130 -.00000072  00000+0  17708-3 0  9993
2 37739  51.9853  76.6711 0000954 102.1022 271.3774 12.62276543660434
GLOBALSTAR M088         
1 37740U 11033B   25275.51388714 -.00000074  00000+0  16453-3 0  9990
2 37740  52.0238 343.0403 0000520  94.6547 279.4191 12.62268274655955
GLOBALSTAR M091         
1 37741U 11033C   25275.36839737 -.00000070  00000+0  18942-3 0  9991
2 37741  52.0003 306.8287 0000559  91.3213 282.3451 12.62260194656720
GLOBALSTAR M085         
1 37742U 11033D   25275.70661691 -.00000085  00000+0  10590-3 0  9999
2 37742  52.0115 256.8652 0000616  80.2480  90.7520 12.62265227657273
GLOBALSTAR M081         
1 37743U 11033E   25275.22341632 -.00000073  00000+0  17265-3 0  9990
2 37743  51.9946 261.0664 0000419  95.0104 278.6059 12.62268896657362
GLOBALSTAR M089         
1 37744U 11033F   25275.61441053 -.00000091  00000+0  73068-4 0  9996
2 37744  51.9921 214.0821 0000373  43.6584 128.3351 12.62267399658251
